KUIPER-00095            
1 65134U 25171C   25352.18353014 -.00079754  00000+0 -70752-2 0  9993
2 65134  51.8894 150.7402 0005321 206.7942 153.2753 14.96087320 20936
KUIPER-00096            
1 65135U 25171D   25350.75052593 -.00006541  00000+0 -82868-3 0  9999
2 65135  51.8982 164.8408 0010814 228.5507 131.4527 14.79928288 20619
KUIPER-00097            
1 65136U 25171E   25352.16607780 -.00003750  00000+0 -46212-3 0  9993
2 65136  51.8966 161.1954 0010172 239.4823 120.5136 14.79954214 20777
KUIPER-00098            
1 65137U 25171F   25351.89323963  .00002406  00000+0  34454-3 0  9991
2 65137  51.8981 164.7893 0007826 215.9686 144.0750 14.79945688 20053
KUIPER-00099            
1 65138U 25171G   25352.33335648  .00018186  00000+0  23608-2 0  9995
2 65138  51.9002 152.8130 0001575 149.3057 156.8593 14.80767450  5553
KUIPER-00100            
1 65139U 25171H   25352.33335648  .00023069  00000+0  27509-2 0  9996
2 65139  51.8992 150.3764 0000983  46.8653  25.7036 14.84171447  4635
KUIPER-00102            
1 65140U 25171J   25352.33335648  .00009837  00000+0  13106-2 0  9993
2 65140  51.8963 152.7972 0000538 228.1015 285.9654 14.80152093  4712
KUIPER-00103            
1 65141U 25171K   25352.18910124 -.00000897  00000+0 -88483-4 0  9996
2 65141  51.8989 170.9743 0005836 213.9721 146.0868 14.79910820 20643
